INTELSAT 21 (IS-21)     
1 38749U 12045A   26170.80739213 -.00000290  00000+0  00000+0 0  9992
2 38749   0.0182  14.8448 0001425  84.6372  41.2043  1.00272561 50558
INTELSAT 23 (IS-23)     
1 38867U 12057A   26170.22916560 -.00000291  00000+0  00000+0 0  9995
2 38867   0.0099 325.5761 0000134  86.5042 244.8525  1.00267375 49974
FM-6                    
1 39360U 13058A   26170.72736014  .00000000  00000+0  00000+0 0  9992
2 39360   0.0356  52.4724 0001710 122.4129 238.6158  1.00270821 46094
INTELSAT 30 (IS-30)     
1 40271U 14062A   26170.24364323 -.00000157  00000+0  00000+0 0  9992
2 40271   0.0281  53.7801 0001240 330.6226 235.7245  1.00270952  6819
DIRECTV 14              
1 40333U 14078B   26170.65943204 -.00000131  00000+0  00000+0 0  9996
2 40333   0.0096  21.7348 0000313 296.0721  88.2306  1.00270473 42062
DIRECTV 15              
1 40663U 15026A   26170.65873869 -.00000108  00000+0  00000+0 0  9999
2 40663   0.0148  55.2937 0000300 316.2829  30.5620  1.00272172 40483
SKY MEXICO-1            
1 40664U 15026B   26170.80597911 -.00000240  00000+0  00000+0 0  9995
2 40664   0.0172  57.8441 0002119  47.1967  14.3338  1.00272275 40482
INTELSAT 34 (IS-34)     
1 40874U 15039A   26170.80183425 -.00000291  00000+0  00000+0 0  9999
2 40874   0.0089  12.0194 0000500 334.3252 154.8400  1.00270827 39669
INTELSAT 31 (IS-31)     
1 41581U 16035A   26170.08993880 -.00000156  00000+0  00000+0 0  9996
2 41581   0.0171 269.3791 0001127 318.6423 336.6183  1.00264216 36703
INTELSAT 36 (IS-36)     
1 41747U 16053A   26169.99747454 -.00000031  00000+0  00000+0 0  9994
2 41747   0.0124  11.1204 0002121 322.4188   1.2761  1.00271257 35971
INTELSAT 32E (IS-32E)   
1 41945U 17007B   26170.17150841 -.00000275  00000+0  00000+0 0  9994
2 41945   0.0180  10.1464 0000655 310.2644 325.5432  1.00270576 34241
INTELSAT 35E (IS-35E)   
1 42818U 17041A   26170.17324176  .00000000  00000+0  00000+0 0  9991
2 42818   0.0194  13.3558 0002038  75.0828 206.8380  1.00270762 32835
INTELSAT 37E (IS-37E)   
1 42950U 17059A   26170.85877912 -.00000146  00000+0  00000+0 0  9995
2 42950   0.0183  15.8076 0002578  96.8898  86.5479  1.00271087 32090
AZERSPACE 2 (IS-38)     
1 43632U 18074A   26169.90383875  .00000130  00000+0  00000+0 0  9997
2 43632   0.0173  14.6973 0001499  84.9449 177.9809  1.00273868 28468
HORIZONS-3E             
1 43633U 18074B   26170.71254007 -.00000036  00000+0  00000+0 0  9999
2 43633   0.0197 132.1360 0000639 148.8720  52.4420  1.00272022 28364
AT&T T-16               
1 44333U 19034A   26170.65908536 -.00000121  00000+0  00000+0 0  9995
2 44333   0.0205  64.4367 0000790 246.1589  93.6973  1.00271427 25656
INTELSAT 39 (IS-39)     
1 44476U 19049B   26170.85171477  .00000028  00000+0  00000+0 0  9992
2 44476   0.0075   4.6950 0000933 326.1975 305.7397  1.00270992 25158
GALAXY 30 (G-30)        
1 46114U 20056C   26170.72562682  .00000031  00000+0  00000+0 0  9995
2 46114   0.0178  13.9580 0002253  74.1097 316.0992  1.00272867 21310
GALAXY 33 (G-33)        
1 54026U 22128A   26170.54169454  .00000073  00000+0  00000+0 0  9994
2 54026   0.0196  49.2747 0001703  35.1210 245.3737  1.00270256 13762
GALAXY 34 (G-34)        
1 54027U 22128B   26170.72484681  .00000053  00000+0  00000+0 0  9995
2 54027   0.0118  50.0538 0001675  48.8611 300.9719  1.00275881 13935
GALAXY 31 (G-31)        
1 54243U 22153A   26170.65509867  .00000007  00000+0  00000+0 0  9998
2 54243   0.0226  84.3496 0001142 355.7948 302.5529  1.00271913  7156
GALAXY 32 (G-32)        
1 54244U 22153B   26170.80355242 -.00000180  00000+0  00000+0 0  9995
2 54244   0.0145  32.1698 0002078   4.4975  69.6346  1.00271611 13171
GALAXY 35 (G-35)        
1 54741U 22170A   26170.51808203 -.00000168  00000+0  00000+0 0  9990
2 54741   0.0133  66.3445 0001847  18.4425 276.3511  1.00271924 12916
GALAXY 36 (G-36)        
1 54742U 22170B   26170.51886203 -.00000191  00000+0  00000+0 0  9993
2 54742   0.0040 322.4331 0002538 121.0454 282.0519  1.00272164 12790
GALAXY 37 (G-37)        
1 57493U 23112A   26170.51920360  .00000042  00000+0  00000+0 0  9993
2 57493   0.0013 351.1399 0001980  95.5303 240.9805  1.00271199 10568
